IRIDIUM 154             
1 43574U 18061F   26154.20812984  .00000107  00000+0  31263-4 0  9997
2 43574  86.3970  62.6509 0002052  85.8765 274.2665 14.34217302411403
IRIDIUM 163             
1 43575U 18061G   26154.25887038  .00000082  00000+0  22140-4 0  9991
2 43575  86.3967  62.5453 0002345  84.9878 275.1585 14.34218315411380
IRIDIUM 156             
1 43576U 18061H   26154.65211289  .00000075  00000+0  19671-4 0  9992
2 43576  86.3964  62.3884 0002202  78.3978 281.7465 14.34216992411439
IRIDIUM 164             
1 43577U 18061J   26154.28423836  .00000135  00000+0  41105-4 0  9999
2 43577  86.3968  62.5824 0002082  88.5188 271.6246 14.34216110411428
IRIDIUM 159             
1 43578U 18061K   26154.25252876 -.00000003  00000+0 -81803-5 0  9997
2 43578  86.3964  62.5325 0002189  85.5676 274.5770 14.34217381411388
IRIDIUM 180             
1 43922U 19002A   26154.67063645  .00000015  00000+0 -17043-5 0  9993
2 43922  86.3973 359.2493 0002225  88.9672 271.1779 14.34217553387056
IRIDIUM 176             
1 43923U 19002B   26154.63341067  .00000835  00000+0  12855-3 0  9990
2 43923  86.6084 359.2092 0002424  86.5253 273.6242 14.72250115397256
IRIDIUM 168             
1 43924U 19002C   26154.66429345 -.00000019  00000+0 -13680-4 0  9994
2 43924  86.3975 359.3287 0002037  88.6038 271.5391 14.34217292387038
IRIDIUM 173             
1 43925U 19002D   26154.58183838  .00000265  00000+0  87713-4 0  9999
2 43925  86.3971 359.2527 0002155  86.7370 273.4073 14.34218849387004
IRIDIUM 169             
1 43926U 19002E   26154.61931185  .00000395  00000+0  12256-3 0  9993
2 43926  86.4235  30.8654 0002366  70.4443 289.7010 14.38607888388277
IRIDIUM 172             
1 43927U 19002F   26154.64526601  .00000020  00000+0 -87213-7 0  9995
2 43927  86.3974 359.2342 0002259  89.0787 271.0667 14.34217437387024
IRIDIUM 175             
1 43928U 19002G   26154.34351604  .00000367  00000+0  10234-3 0  9990
2 43928  86.4502 296.3094 0000989 262.2416  97.8672 14.43604578396981
IRIDIUM 171             
1 43929U 19002H   26154.62623716  .00000041  00000+0  74751-5 0  9993
2 43929  86.3982 359.5466 0002027  85.2048 274.9380 14.34217815387019
IRIDIUM 170             
1 43930U 19002J   26154.63959514  .00000213  00000+0  29836-4 0  9998
2 43930  86.6110 359.2126 0002374  92.6741 267.4748 14.72248038397260
IRIDIUM 167             
1 43931U 19002K   26154.61989435  .00000015  00000+0 -18327-5 0  9997
2 43931  86.3972 359.2665 0001806  83.2200 276.9201 14.34217519387016
IRIDIUM 181             
1 56726U 23068S   26154.86454174  .00000229  00000+0  61933-4 0  9990
2 56726  86.4505  62.3588 0002275  88.3834 271.7627 14.43306685160513
IRIDIUM 177             
1 56727U 23068T   26154.59940823  .00000475  00000+0  58942-4 0  9991
2 56727  86.1957 335.2467 0002450  86.3633 273.7869 14.80229429164357
IRIDIUM 174             
1 56728U 23068U   26154.62723532  .00000058  00000+0  52846-5 0  9997
2 56728  86.6104 359.3614 0002628  89.4415 270.7104 14.72251640164021
IRIDIUM 178             
1 56729U 23068V   26154.65614380  .00001124  00000+0  14446-3 0  9998
2 56729  86.6548  31.0149 0002498  88.9134 271.2374 14.80242333164368
IRIDIUM 179             
1 56730U 23068W   26154.65078786  .00001125  00000+0  14464-3 0  9995
2 56730  86.6788  39.9564 0002351  85.5694 274.5796 14.80239082164367
