OBJECT_NAME,OBJECT_ID,EPOCH,MEAN_MOTION,ECCENTRICITY,INCLINATION,RA_OF_ASC_NODE,ARG_OF_PERICENTER,MEAN_ANOMALY,EPHEMERIS_TYPE,CLASSIFICATION_TYPE,NORAD_CAT_ID,ELEMENT_SET_NO,REV_AT_EPOCH,BSTAR,MEAN_MOTION_DOT,MEAN_MOTION_DDOT
IRIDIUM 154,2018-061F,2026-06-03T04:59:42.418176,14.34217302,.0002052,86.3970,62.6509,85.8765,274.2665,0,U,43574,999,41140,.31263E-4,.107E-5,0
IRIDIUM 163,2018-061G,2026-06-03T06:12:46.400832,14.34218315,.00023457,86.3967,62.5453,84.9878,275.1585,0,U,43575,999,41138,.22139673E-4,.82E-6,0
IRIDIUM 156,2018-061H,2026-06-03T15:39:02.553696,14.34216992,.00022021,86.3964,62.3884,78.3978,281.7465,0,U,43576,999,41143,.19671314E-4,.75E-6,0
IRIDIUM 164,2018-061J,2026-06-03T06:49:18.194304,14.34216110,.00020825,86.3968,62.5824,88.5188,271.6246,0,U,43577,999,41142,.41105292E-4,.135E-5,0
IRIDIUM 159,2018-061K,2026-06-03T06:03:38.484864,14.34217381,.00021896,86.3964,62.5325,85.5676,274.5770,0,U,43578,999,41138,-.8180285E-5,-.3E-7,0
IRIDIUM 180,2019-002A,2026-06-03T16:05:42.989280,14.34217553,.0002225,86.3973,359.2493,88.9672,271.1779,0,U,43922,999,38705,-.1704273E-5,.15E-6,0
IRIDIUM 176,2019-002B,2026-06-03T15:12:06.681888,14.72250115,.00024247,86.6084,359.2092,86.5253,273.6242,0,U,43923,999,39725,.12855173E-3,.835E-5,0
IRIDIUM 168,2019-002C,2026-06-03T15:56:34.954080,14.34217292,.00020372,86.3975,359.3287,88.6038,271.5391,0,U,43924,999,38703,-.13680398E-4,-.19E-6,0
IRIDIUM 173,2019-002D,2026-06-03T13:57:50.836032,14.34218849,.00021557,86.3971,359.2527,86.7370,273.4073,0,U,43925,999,38700,.87713319E-4,.265E-5,0
IRIDIUM 169,2019-002E,2026-06-03T14:51:48.543840,14.38607888,.00023664,86.4235,30.8654,70.4443,289.7010,0,U,43926,999,38827,.12256107E-3,.395E-5,0
IRIDIUM 172,2019-002F,2026-06-03T15:29:10.983264,14.34217437,.00022593,86.3974,359.2342,89.0787,271.0667,0,U,43927,999,38702,-.87213E-7,.2E-6,0
IRIDIUM 175,2019-002G,2026-06-03T08:14:39.785856,14.43604578,.00009891,86.4502,296.3094,262.2416,97.8672,0,U,43928,999,39698,.10234176E-3,.367E-5,0
IRIDIUM 171,2019-002H,2026-06-03T15:01:46.890624,14.34217815,.00020274,86.3982,359.5466,85.2048,274.9380,0,U,43929,999,38701,.7475102E-5,.41E-6,0
IRIDIUM 170,2019-002J,2026-06-03T15:21:01.020096,14.72248038,.00023745,86.6110,359.2126,92.6741,267.4748,0,U,43930,999,39726,.2983599E-4,.213E-5,0
IRIDIUM 167,2019-002K,2026-06-03T14:52:38.871840,14.34217519,.00018061,86.3972,359.2665,83.2200,276.9201,0,U,43931,999,38701,-.1832742E-5,.15E-6,0
IRIDIUM 181,2023-068S,2026-06-03T20:44:56.406336,14.43306685,.00022752,86.4505,62.3588,88.3834,271.7627,0,U,56726,999,16051,.61933327E-4,.229E-5,0
IRIDIUM 177,2023-068T,2026-06-03T14:23:08.871072,14.80229429,.00024506,86.1957,335.2467,86.3633,273.7869,0,U,56727,999,16435,.5894205E-4,.475E-5,0
IRIDIUM 174,2023-068U,2026-06-03T15:03:13.131648,14.72251640,.00026281,86.6104,359.3614,89.4415,270.7104,0,U,56728,999,16402,.5284585E-5,.58E-6,0
IRIDIUM 178,2023-068V,2026-06-03T15:44:50.824320,14.80242333,.00024985,86.6548,31.0149,88.9134,271.2374,0,U,56729,999,16436,.14445636E-3,.1124E-4,0
IRIDIUM 179,2023-068W,2026-06-03T15:37:08.071104,14.80239082,.00023515,86.6788,39.9564,85.5694,274.5796,0,U,56730,999,16436,.14463914E-3,.1125E-4,0
